ONEWEB-0283             
1 49001U 21060AL  26058.04174141  .00000031  00000+0  46273-4 0  9995
2 49001  87.9002 250.6964 0001496  98.5993 261.5307 13.16592123225126
ONEWEB-0284             
1 49002U 21060AM  26058.03541726  .00000005  00000+0 -20652-4 0  9997
2 49002  87.9025 250.6871 0001835  94.8015 265.3325 13.16592751225107
ONEWEB-0285             
1 49075U 21075A   26057.59259839 -.00000325  00000+0 -93742-3 0  9999
2 49075  87.8987  12.6093 0001847  82.6802 277.4537 13.12441338220707
ONEWEB-0286             
1 49076U 21075B   26058.26083174  .00000090  00000+0  21390-3 0  9999
2 49076  87.8979  12.5041 0001822  74.5413 285.5917 13.12441891220146
ONEWEB-0287             
1 49077U 21075C   26058.21108552  .00000067  00000+0  14000-3 0  9997
2 49077  87.9129  27.7070 0002037  70.4392 289.6960 13.17650268219141
ONEWEB-0288             
1 49078U 21075D   26058.23724786  .00000393  00000+0  10577-2 0  9999
2 49078  87.8987  12.4757 0001984  79.4321 280.7031 13.12442421220763
ONEWEB-0289             
1 49079U 21075E   26058.17381432  .00000069  00000+0  14359-3 0  9993
2 49079  87.9137  27.7260 0002261  89.2460 270.8931 13.17650619219719
ONEWEB-0290             
1 49080U 21075F   26058.14696408 -.00000041  00000+0 -13756-3 0  9996
2 49080  87.9137  27.6994 0002230  96.3006 263.8380 13.17646491219123
ONEWEB-0291             
1 49081U 21075G   26057.37241568  .00000048  00000+0  91477-4 0  9996
2 49081  87.9134  27.8618 0002230  78.2411 281.8970 13.17649274219010
ONEWEB-0293             
1 49082U 21075H   26058.15709351  .00000029  00000+0  42374-4 0  9994
2 49082  87.9127  27.7178 0002033  84.4510 275.6854 13.17649036219145
ONEWEB-0294             
1 49083U 21075J   26058.24402112  .00000449  00000+0  12124-2 0  9994
2 49083  87.8988  12.4765 0002144  85.1272 275.0102 13.12441376220154
ONEWEB-0295             
1 49084U 21075K   26058.15625638 -.00000001  00000+0 -36480-4 0  9994
2 49084  87.9127  27.7225 0002099  75.0683 285.0681 13.17648993219109
ONEWEB-0296             
1 49085U 21075L   26058.14745213  .00000068  00000+0  15473-3 0  9995
2 49085  87.8993  12.4988 0002143  74.7605 285.3761 13.12443026220140
ONEWEB-0297             
1 49086U 21075M   26058.25418873  .00000229  00000+0  60253-3 0  9992
2 49086  87.8981  12.5039 0001914  76.3778 283.7563 13.12440992220769
ONEWEB-0298             
1 49087U 21075N   26058.16060282  .00000004  00000+0 -23820-4 0  9992
2 49087  87.9128  27.7187 0001744  79.5511 280.5817 13.17649767219139
ONEWEB-0299             
1 49088U 21075P   26057.47871980  .00000088  00000+0  19299-3 0  9996
2 49088  87.9140  27.8234 0001931  77.8438 282.2910 13.17649584219023
ONEWEB-0300             
1 49089U 21075Q   26058.24657185  .00000483  00000+0  13060-2 0  9990
2 49089  87.8989  12.4727 0001520  75.5122 284.6175 13.12442341220781
