[{"OBJECT_NAME":"ONEWEB-0283","OBJECT_ID":"2021-060AL","EPOCH":"2026-02-27T01:00:06.457824","MEAN_MOTION":13.16592123,"ECCENTRICITY":0.00014963,"INCLINATION":87.9002,"RA_OF_ASC_NODE":250.6964,"ARG_OF_PERICENTER":98.5993,"MEAN_ANOMALY":261.5307,"EPHEMERIS_TYPE":0,"CLASSIFICATION_TYPE":"U","NORAD_CAT_ID":49001,"ELEMENT_SET_NO":999,"REV_AT_EPOCH":22512,"BSTAR":4.6272714e-5,"MEAN_MOTION_DOT":3.1e-7,"MEAN_MOTION_DDOT":0},{"OBJECT_NAME":"ONEWEB-0284","OBJECT_ID":"2021-060AM","EPOCH":"2026-02-27T00:51:00.051264","MEAN_MOTION":13.16592751,"ECCENTRICITY":0.00018354,"INCLINATION":87.9025,"RA_OF_ASC_NODE":250.6871,"ARG_OF_PERICENTER":94.8015,"MEAN_ANOMALY":265.3325,"EPHEMERIS_TYPE":0,"CLASSIFICATION_TYPE":"U","NORAD_CAT_ID":49002,"ELEMENT_SET_NO":999,"REV_AT_EPOCH":22510,"BSTAR":-2.065205e-5,"MEAN_MOTION_DOT":5.0e-8,"MEAN_MOTION_DDOT":0},{"OBJECT_NAME":"ONEWEB-0285","OBJECT_ID":"2021-075A","EPOCH":"2026-02-26T14:13:20.500896","MEAN_MOTION":13.12441338,"ECCENTRICITY":0.0001847,"INCLINATION":87.8987,"RA_OF_ASC_NODE":12.6093,"ARG_OF_PERICENTER":82.6802,"MEAN_ANOMALY":277.4537,"EPHEMERIS_TYPE":0,"CLASSIFICATION_TYPE":"U","NORAD_CAT_ID":49075,"ELEMENT_SET_NO":999,"REV_AT_EPOCH":22070,"BSTAR":-0.00093742,"MEAN_MOTION_DOT":-3.25e-6,"MEAN_MOTION_DDOT":0},{"OBJECT_NAME":"ONEWEB-0286","OBJECT_ID":"2021-075B","EPOCH":"2026-02-27T06:15:35.862336","MEAN_MOTION":13.12441891,"ECCENTRICITY":0.00018223,"INCLINATION":87.8979,"RA_OF_ASC_NODE":12.5041,"ARG_OF_PERICENTER":74.5413,"MEAN_ANOMALY":285.5917,"EPHEMERIS_TYPE":0,"CLASSIFICATION_TYPE":"U","NORAD_CAT_ID":49076,"ELEMENT_SET_NO":999,"REV_AT_EPOCH":22014,"BSTAR":0.00021389755,"MEAN_MOTION_DOT":9.0e-7,"MEAN_MOTION_DDOT":0},{"OBJECT_NAME":"ONEWEB-0287","OBJECT_ID":"2021-075C","EPOCH":"2026-02-27T05:03:57.788928","MEAN_MOTION":13.17650268,"ECCENTRICITY":0.00020372,"INCLINATION":87.9129,"RA_OF_ASC_NODE":27.707,"ARG_OF_PERICENTER":70.4392,"MEAN_ANOMALY":289.696,"EPHEMERIS_TYPE":0,"CLASSIFICATION_TYPE":"U","NORAD_CAT_ID":49077,"ELEMENT_SET_NO":999,"REV_AT_EPOCH":21914,"BSTAR":0.00014000074,"MEAN_MOTION_DOT":6.7e-7,"MEAN_MOTION_DDOT":0},{"OBJECT_NAME":"ONEWEB-0288","OBJECT_ID":"2021-075D","EPOCH":"2026-02-27T05:41:38.215104","MEAN_MOTION":13.12442421,"ECCENTRICITY":0.0001984,"INCLINATION":87.8987,"RA_OF_ASC_NODE":12.4757,"ARG_OF_PERICENTER":79.4321,"MEAN_ANOMALY":280.7031,"EPHEMERIS_TYPE":0,"CLASSIFICATION_TYPE":"U","NORAD_CAT_ID":49078,"ELEMENT_SET_NO":999,"REV_AT_EPOCH":22076,"BSTAR":0.0010576899,"MEAN_MOTION_DOT":3.93e-6,"MEAN_MOTION_DDOT":0},{"OBJECT_NAME":"ONEWEB-0289","OBJECT_ID":"2021-075E","EPOCH":"2026-02-27T04:10:17.557248","MEAN_MOTION":13.17650619,"ECCENTRICITY":0.0002261,"INCLINATION":87.9137,"RA_OF_ASC_NODE":27.726,"ARG_OF_PERICENTER":89.246,"MEAN_ANOMALY":270.8931,"EPHEMERIS_TYPE":0,"CLASSIFICATION_TYPE":"U","NORAD_CAT_ID":49079,"ELEMENT_SET_NO":999,"REV_AT_EPOCH":21971,"BSTAR":0.00014359001,"MEAN_MOTION_DOT":6.9e-7,"MEAN_MOTION_DDOT":0},{"OBJECT_NAME":"ONEWEB-0290","OBJECT_ID":"2021-075F","EPOCH":"2026-02-27T03:31:37.696512","MEAN_MOTION":13.17646491,"ECCENTRICITY":0.000223,"INCLINATION":87.9137,"RA_OF_ASC_NODE":27.6994,"ARG_OF_PERICENTER":96.3006,"MEAN_ANOMALY":263.838,"EPHEMERIS_TYPE":0,"CLASSIFICATION_TYPE":"U","NORAD_CAT_ID":49080,"ELEMENT_SET_NO":999,"REV_AT_EPOCH":21912,"BSTAR":-0.00013756079,"MEAN_MOTION_DOT":-4.1e-7,"MEAN_MOTION_DDOT":0},{"OBJECT_NAME":"ONEWEB-0291","OBJECT_ID":"2021-075G","EPOCH":"2026-02-26T08:56:16.714752","MEAN_MOTION":13.17649274,"ECCENTRICITY":0.000223,"INCLINATION":87.9134,"RA_OF_ASC_NODE":27.8618,"ARG_OF_PERICENTER":78.2411,"MEAN_ANOMALY":281.897,"EPHEMERIS_TYPE":0,"CLASSIFICATION_TYPE":"U","NORAD_CAT_ID":49081,"ELEMENT_SET_NO":999,"REV_AT_EPOCH":21901,"BSTAR":9.1477e-5,"MEAN_MOTION_DOT":4.8e-7,"MEAN_MOTION_DDOT":0},{"OBJECT_NAME":"ONEWEB-0293","OBJECT_ID":"2021-075H","EPOCH":"2026-02-27T03:46:12.879264","MEAN_MOTION":13.17649036,"ECCENTRICITY":0.0002033,"INCLINATION":87.9127,"RA_OF_ASC_NODE":27.7178,"ARG_OF_PERICENTER":84.451,"MEAN_ANOMALY":275.6854,"EPHEMERIS_TYPE":0,"CLASSIFICATION_TYPE":"U","NORAD_CAT_ID":49082,"ELEMENT_SET_NO":999,"REV_AT_EPOCH":21914,"BSTAR":4.2374165e-5,"MEAN_MOTION_DOT":2.9e-7,"MEAN_MOTION_DDOT":0},{"OBJECT_NAME":"ONEWEB-0294","OBJECT_ID":"2021-075J","EPOCH":"2026-02-27T05:51:23.424768","MEAN_MOTION":13.12441376,"ECCENTRICITY":0.00021448,"INCLINATION":87.8988,"RA_OF_ASC_NODE":12.4765,"ARG_OF_PERICENTER":85.1272,"MEAN_ANOMALY":275.0102,"EPHEMERIS_TYPE":0,"CLASSIFICATION_TYPE":"U","NORAD_CAT_ID":49083,"ELEMENT_SET_NO":999,"REV_AT_EPOCH":22015,"BSTAR":0.0012124014,"MEAN_MOTION_DOT":4.49e-6,"MEAN_MOTION_DDOT":0},{"OBJECT_NAME":"ONEWEB-0295","OBJECT_ID":"2021-075K","EPOCH":"2026-02-27T03:45:00.551232","MEAN_MOTION":13.17648993,"ECCENTRICITY":0.00020995,"INCLINATION":87.9127,"RA_OF_ASC_NODE":27.7225,"ARG_OF_PERICENTER":75.0683,"MEAN_ANOMALY":285.0681,"EPHEMERIS_TYPE":0,"CLASSIFICATION_TYPE":"U","NORAD_CAT_ID":49084,"ELEMENT_SET_NO":999,"REV_AT_EPOCH":21910,"BSTAR":-3.6479666e-5,"MEAN_MOTION_DOT":-1.0e-8,"MEAN_MOTION_DDOT":0},{"OBJECT_NAME":"ONEWEB-0296","OBJECT_ID":"2021-075L","EPOCH":"2026-02-27T03:32:19.864032","MEAN_MOTION":13.12443026,"ECCENTRICITY":0.00021434,"INCLINATION":87.8993,"RA_OF_ASC_NODE":12.4988,"ARG_OF_PERICENTER":74.7605,"MEAN_ANOMALY":285.3761,"EPHEMERIS_TYPE":0,"CLASSIFICATION_TYPE":"U","NORAD_CAT_ID":49085,"ELEMENT_SET_NO":999,"REV_AT_EPOCH":22014,"BSTAR":0.00015473132,"MEAN_MOTION_DOT":6.8e-7,"MEAN_MOTION_DDOT":0},{"OBJECT_NAME":"ONEWEB-0297","OBJECT_ID":"2021-075M","EPOCH":"2026-02-27T06:06:01.906272","MEAN_MOTION":13.12440992,"ECCENTRICITY":0.0001914,"INCLINATION":87.8981,"RA_OF_ASC_NODE":12.5039,"ARG_OF_PERICENTER":76.3778,"MEAN_ANOMALY":283.7563,"EPHEMERIS_TYPE":0,"CLASSIFICATION_TYPE":"U","NORAD_CAT_ID":49086,"ELEMENT_SET_NO":999,"REV_AT_EPOCH":22076,"BSTAR":0.00060253002,"MEAN_MOTION_DOT":2.29e-6,"MEAN_MOTION_DDOT":0},{"OBJECT_NAME":"ONEWEB-0298","OBJECT_ID":"2021-075N","EPOCH":"2026-02-27T03:51:16.083648","MEAN_MOTION":13.17649767,"ECCENTRICITY":0.00017445,"INCLINATION":87.9128,"RA_OF_ASC_NODE":27.7187,"ARG_OF_PERICENTER":79.5511,"MEAN_ANOMALY":280.5817,"EPHEMERIS_TYPE":0,"CLASSIFICATION_TYPE":"U","NORAD_CAT_ID":49087,"ELEMENT_SET_NO":999,"REV_AT_EPOCH":21913,"BSTAR":-2.3820213e-5,"MEAN_MOTION_DOT":4.0e-8,"MEAN_MOTION_DDOT":0},{"OBJECT_NAME":"ONEWEB-0299","OBJECT_ID":"2021-075P","EPOCH":"2026-02-26T11:29:21.390720","MEAN_MOTION":13.17649584,"ECCENTRICITY":0.0001931,"INCLINATION":87.914,"RA_OF_ASC_NODE":27.8234,"ARG_OF_PERICENTER":77.8438,"MEAN_ANOMALY":282.291,"EPHEMERIS_TYPE":0,"CLASSIFICATION_TYPE":"U","NORAD_CAT_ID":49088,"ELEMENT_SET_NO":999,"REV_AT_EPOCH":21902,"BSTAR":0.00019299,"MEAN_MOTION_DOT":8.8e-7,"MEAN_MOTION_DDOT":0},{"OBJECT_NAME":"ONEWEB-0300","OBJECT_ID":"2021-075Q","EPOCH":"2026-02-27T05:55:03.807840","MEAN_MOTION":13.12442341,"ECCENTRICITY":0.00015201,"INCLINATION":87.8989,"RA_OF_ASC_NODE":12.4727,"ARG_OF_PERICENTER":75.5122,"MEAN_ANOMALY":284.6175,"EPHEMERIS_TYPE":0,"CLASSIFICATION_TYPE":"U","NORAD_CAT_ID":49089,"ELEMENT_SET_NO":999,"REV_AT_EPOCH":22078,"BSTAR":0.0013059672,"MEAN_MOTION_DOT":4.83e-6,"MEAN_MOTION_DDOT":0}]
